{
    "links": {
        "self": "http://www.neowsapp.com/rest/v1/neo/3557338?api_key=iIulBulltgU6a56xZRHN4H3l9WmuAYTsLGpBGhQ2"
    },
    "id": "3557338",
    "neo_reference_id": "3557338",
    "name": "(2011 CL33)",
    "designation": "2011 CL33",
    "nasa_jpl_url": "http://ssd.jpl.nasa.gov/sbdb.cgi?sstr=3557338",
    "absolute_magnitude_h": 25.9,
    "estimated_diameter": {
        "kilometers": {
            "estimated_diameter_min": 0.0175612318,
            "estimated_diameter_max": 0.0392681082
        },
        "meters": {
            "estimated_diameter_min": 17.561231848,
            "estimated_diameter_max": 39.2681081809
        },
        "miles": {
            "estimated_diameter_min": 0.0109120402,
            "estimated_diameter_max": 0.0244000636
        },
        "feet": {
            "estimated_diameter_min": 57.6155918963,
            "estimated_diameter_max": 128.8323800441
        }
    },
    "is_potentially_hazardous_asteroid": false,
    "close_approach_data": [
        {
            "close_approach_date": "1950-05-22",
            "close_approach_date_full": "1950-May-22 12:19",
            "epoch_date_close_approach": -618925260000,
            "relative_velocity": {
                "kilometers_per_second": "4.9818408658",
                "kilometers_per_hour": "17934.6271169712",
                "miles_per_hour": "11143.8798327647"
            },
            "miss_distance": {
                "astronomical": "0.4191910247",
                "lunar": "163.0653086083",
                "kilometers": "62710084.418237389",
                "miles": "38966239.5689544082"
            },
            "orbiting_body": "Earth"
        },
        {
            "close_approach_date": "2011-02-09",
            "close_approach_date_full": "2011-Feb-09 03:26",
            "epoch_date_close_approach": 1297221960000,
            "relative_velocity": {
                "kilometers_per_second": "4.1996486682",
                "kilometers_per_hour": "15118.7352055069",
                "miles_per_hour": "9394.1941058884"
            },
            "miss_distance": {
                "astronomical": "0.0329542066",
                "lunar": "12.8191863674",
                "kilometers": "4929879.114899942",
                "miles": "3063284.8355935196"
            },
            "orbiting_body": "Earth"
        }
    ],
    "orbital_data": {
        "orbit_id": "6",
        "orbit_determination_date": "2017-04-06 08:54:31",
        "first_observation_date": "2011-02-08",
        "last_observation_date": "2011-02-10",
        "data_arc_in_days": 2,
        "observations_used": 13,
        "orbit_uncertainty": "8",
        "minimum_orbit_intersection": ".0158044",
        "jupiter_tisserand_invariant": "4.791",
        "epoch_osculation": "2455601.5",
        "eccentricity": ".2669269893278272",
        "semi_major_axis": "1.367285387402903",
        "inclination": "4.086686060050527",
        "ascending_node_longitude": "336.6681373230376",
        "orbital_period": "583.9654935332497",
        "perihelion_distance": "1.002320015391514",
        "perihelion_argument": "168.6919052568553",
        "aphelion_distance": "1.732250759414292",
        "perihelion_time": "2455605.539019663043",
        "mean_anomaly": "357.510046235955",
        "mean_motion": ".6164747814495692",
        "equinox": "J2000",
        "orbit_class": {
            "orbit_class_type": "APO",
            "orbit_class_description": "Near-Earth asteroid orbits which cross the Earth’s orbit similar to that of 1862 Apollo",
            "orbit_class_range": "a (semi-major axis) > 1.0 AU; q (perihelion) < 1.017 AU"
        }
    },
    "is_sentry_object": false
}